CCSDS_OMM_VERS = 2.0
CREATION_DATE  = 
ORIGINATOR     = 

OBJECT_NAME    = SL-3 R/B
OBJECT_ID      = 1982-079B
CENTER_NAME    = EARTH
REF_FRAME      = TEME
TIME_SYSTEM    = UTC
MEAN_ELEMENT_THEORY = SGP/SGP4

EPOCH          = 2026-01-07T11:43:11.119296
MEAN_MOTION    = 15.23955612
ECCENTRICITY   = .0025962
INCLINATION    = 81.1463
RA_OF_ASC_NODE = 265.3049
ARG_OF_PERICENTER = 15.8257
MEAN_ANOMALY   = 344.3780

EPHEMERIS_TYPE = 0
CLASSIFICATION_TYPE = U
NORAD_CAT_ID   = 13403
ELEMENT_SET_NO = 999
REV_AT_EPOCH   = 36837
BSTAR          = .20534E-3
MEAN_MOTION_DOT = .5039E-4
MEAN_MOTION_DDOT = 0

CCSDS_OMM_VERS = 2.0
CREATION_DATE  = 
ORIGINATOR     = 

OBJECT_NAME    = SL-14 R/B
OBJECT_ID      = 1982-092B
CENTER_NAME    = EARTH
REF_FRAME      = TEME
TIME_SYSTEM    = UTC
MEAN_ELEMENT_THEORY = SGP/SGP4

EPOCH          = 2026-01-07T12:38:48.888672
MEAN_MOTION    = 14.86586438
ECCENTRICITY   = .0021261
INCLINATION    = 82.5668
RA_OF_ASC_NODE = 198.5938
ARG_OF_PERICENTER = 140.9607
MEAN_ANOMALY   = 275.4202

EPHEMERIS_TYPE = 0
CLASSIFICATION_TYPE = U
NORAD_CAT_ID   = 13553
ELEMENT_SET_NO = 999
REV_AT_EPOCH   = 31984
BSTAR          = .64095E-4
MEAN_MOTION_DOT = .595E-5
MEAN_MOTION_DDOT = 0

CCSDS_OMM_VERS = 2.0
CREATION_DATE  = 
ORIGINATOR     = 

OBJECT_NAME    = SL-3 R/B
OBJECT_ID      = 1983-010B
CENTER_NAME    = EARTH
REF_FRAME      = TEME
TIME_SYSTEM    = UTC
MEAN_ELEMENT_THEORY = SGP/SGP4

EPOCH          = 2026-01-07T10:31:17.683968
MEAN_MOTION    = 15.44290870
ECCENTRICITY   = .0016196
INCLINATION    = 81.1034
RA_OF_ASC_NODE = 77.2325
ARG_OF_PERICENTER = 258.7261
MEAN_ANOMALY   = 101.2162

EPHEMERIS_TYPE = 0
CLASSIFICATION_TYPE = U
NORAD_CAT_ID   = 13819
ELEMENT_SET_NO = 999
REV_AT_EPOCH   = 34848
BSTAR          = .26871E-3
MEAN_MOTION_DOT = .12459E-3
MEAN_MOTION_DDOT = 0

CCSDS_OMM_VERS = 2.0
CREATION_DATE  = 
ORIGINATOR     = 

OBJECT_NAME    = SL-3 R/B
OBJECT_ID      = 1983-075B
CENTER_NAME    = EARTH
REF_FRAME      = TEME
TIME_SYSTEM    = UTC
MEAN_ELEMENT_THEORY = SGP/SGP4

EPOCH          = 2026-01-07T12:18:41.676768
MEAN_MOTION    = 15.36771818
ECCENTRICITY   = .0024562
INCLINATION    = 97.6116
RA_OF_ASC_NODE = 9.8728
ARG_OF_PERICENTER = 88.6463
MEAN_ANOMALY   = 271.7594

EPHEMERIS_TYPE = 0
CLASSIFICATION_TYPE = U
NORAD_CAT_ID   = 14208
ELEMENT_SET_NO = 999
REV_AT_EPOCH   = 32075
BSTAR          = .26943E-3
MEAN_MOTION_DOT = .9692E-4
MEAN_MOTION_DDOT = 0

CCSDS_OMM_VERS = 2.0
CREATION_DATE  = 
ORIGINATOR     = 

OBJECT_NAME    = COSMOS 1536
OBJECT_ID      = 1984-013A
CENTER_NAME    = EARTH
REF_FRAME      = TEME
TIME_SYSTEM    = UTC
MEAN_ELEMENT_THEORY = SGP/SGP4

EPOCH          = 2026-01-07T12:01:31.362816
MEAN_MOTION    = 15.22918004
ECCENTRICITY   = .0015352
INCLINATION    = 82.5459
RA_OF_ASC_NODE = 168.6096
ARG_OF_PERICENTER = 134.6380
MEAN_ANOMALY   = 225.6111

EPHEMERIS_TYPE = 0
CLASSIFICATION_TYPE = U
NORAD_CAT_ID   = 14699
ELEMENT_SET_NO = 999
REV_AT_EPOCH   = 26330
BSTAR          = .28564E-3
MEAN_MOTION_DOT = .6752E-4
MEAN_MOTION_DDOT = 0

CCSDS_OMM_VERS = 2.0
CREATION_DATE  = 
ORIGINATOR     = 

OBJECT_NAME    = SL-14 R/B
OBJECT_ID      = 1984-027B
CENTER_NAME    = EARTH
REF_FRAME      = TEME
TIME_SYSTEM    = UTC
MEAN_ELEMENT_THEORY = SGP/SGP4

EPOCH          = 2026-01-07T06:43:11.345952
MEAN_MOTION    = 14.85907722
ECCENTRICITY   = .0018072
INCLINATION    = 82.5431
RA_OF_ASC_NODE = 302.6065
ARG_OF_PERICENTER = 171.8344
MEAN_ANOMALY   = 188.3170

EPHEMERIS_TYPE = 0
CLASSIFICATION_TYPE = U
NORAD_CAT_ID   = 14820
ELEMENT_SET_NO = 999
REV_AT_EPOCH   = 23851
BSTAR          = .67848E-4
MEAN_MOTION_DOT = .617E-5
MEAN_MOTION_DDOT = 0

CCSDS_OMM_VERS = 2.0
CREATION_DATE  = 
ORIGINATOR     = 

OBJECT_NAME    = SL-8 R/B
OBJECT_ID      = 1985-006B
CENTER_NAME    = EARTH
REF_FRAME      = TEME
TIME_SYSTEM    = UTC
MEAN_ELEMENT_THEORY = SGP/SGP4

EPOCH          = 2026-01-07T12:10:40.414080
MEAN_MOTION    = 14.37741109
ECCENTRICITY   = .001967
INCLINATION    = 74.0459
RA_OF_ASC_NODE = 13.7233
ARG_OF_PERICENTER = 301.3334
MEAN_ANOMALY   = 175.0061

EPHEMERIS_TYPE = 0
CLASSIFICATION_TYPE = U
NORAD_CAT_ID   = 15483
ELEMENT_SET_NO = 999
REV_AT_EPOCH   = 14523
BSTAR          = .11818E-3
MEAN_MOTION_DOT = .33E-5
MEAN_MOTION_DDOT = 0

CCSDS_OMM_VERS = 2.0
CREATION_DATE  = 
ORIGINATOR     = 

OBJECT_NAME    = SL-12 R/B(2)
OBJECT_ID      = 1985-042D
CENTER_NAME    = EARTH
REF_FRAME      = TEME
TIME_SYSTEM    = UTC
MEAN_ELEMENT_THEORY = SGP/SGP4

EPOCH          = 2026-01-07T07:17:27.924288
MEAN_MOTION    = 14.21960295
ECCENTRICITY   = .0036805
INCLINATION    = 71.1066
RA_OF_ASC_NODE = 217.4143
ARG_OF_PERICENTER = 223.8235
MEAN_ANOMALY   = 309.3365

EPHEMERIS_TYPE = 0
CLASSIFICATION_TYPE = U
NORAD_CAT_ID   = 15772
ELEMENT_SET_NO = 999
REV_AT_EPOCH   = 10566
BSTAR          = .65817E-4
MEAN_MOTION_DOT = .99E-6
MEAN_MOTION_DDOT = 0

CCSDS_OMM_VERS = 2.0
CREATION_DATE  = 
ORIGINATOR     = 

OBJECT_NAME    = SL-14 R/B
OBJECT_ID      = 1985-069B
CENTER_NAME    = EARTH
REF_FRAME      = TEME
TIME_SYSTEM    = UTC
MEAN_ELEMENT_THEORY = SGP/SGP4

EPOCH          = 2026-01-07T11:38:59.594208
MEAN_MOTION    = 14.86358527
ECCENTRICITY   = .0019712
INCLINATION    = 82.5267
RA_OF_ASC_NODE = 82.4992
ARG_OF_PERICENTER = 38.9911
MEAN_ANOMALY   = 321.2722

EPHEMERIS_TYPE = 0
CLASSIFICATION_TYPE = U
NORAD_CAT_ID   = 15945
ELEMENT_SET_NO = 999
REV_AT_EPOCH   = 16374
BSTAR          = .61988E-4
MEAN_MOTION_DOT = .573E-5
MEAN_MOTION_DDOT = 0

CCSDS_OMM_VERS = 2.0
CREATION_DATE  = 
ORIGINATOR     = 

OBJECT_NAME    = SL-16 R/B
OBJECT_ID      = 1985-097B
CENTER_NAME    = EARTH
REF_FRAME      = TEME
TIME_SYSTEM    = UTC
MEAN_ELEMENT_THEORY = SGP/SGP4

EPOCH          = 2026-01-07T12:06:38.710080
MEAN_MOTION    = 14.16589850
ECCENTRICITY   = .0008242
INCLINATION    = 71.0033
RA_OF_ASC_NODE = 269.3629
ARG_OF_PERICENTER = 333.7891
MEAN_ANOMALY   = 198.7914

EPHEMERIS_TYPE = 0
CLASSIFICATION_TYPE = U
NORAD_CAT_ID   = 16182
ELEMENT_SET_NO = 999
REV_AT_EPOCH   = 7856
BSTAR          = .17706E-3
MEAN_MOTION_DOT = .305E-5
MEAN_MOTION_DDOT = 0

CCSDS_OMM_VERS = 2.0
CREATION_DATE  = 
ORIGINATOR     = 

OBJECT_NAME    = SL-14 R/B
OBJECT_ID      = 1986-006B
CENTER_NAME    = EARTH
REF_FRAME      = TEME
TIME_SYSTEM    = UTC
MEAN_ELEMENT_THEORY = SGP/SGP4

EPOCH          = 2026-01-07T08:14:32.309664
MEAN_MOTION    = 14.86711509
ECCENTRICITY   = .0078103
INCLINATION    = 82.5286
RA_OF_ASC_NODE = 317.4612
ARG_OF_PERICENTER = 115.5361
MEAN_ANOMALY   = 245.3958

EPHEMERIS_TYPE = 0
CLASSIFICATION_TYPE = U
NORAD_CAT_ID   = 16496
ELEMENT_SET_NO = 999
REV_AT_EPOCH   = 14009
BSTAR          = .80963E-4
MEAN_MOTION_DOT = .789E-5
MEAN_MOTION_DDOT = 0

CCSDS_OMM_VERS = 2.0
CREATION_DATE  = 
ORIGINATOR     = 

OBJECT_NAME    = COSMOS 1743
OBJECT_ID      = 1986-034A
CENTER_NAME    = EARTH
REF_FRAME      = TEME
TIME_SYSTEM    = UTC
MEAN_ELEMENT_THEORY = SGP/SGP4

EPOCH          = 2026-01-07T10:17:19.369824
MEAN_MOTION    = 15.53946733
ECCENTRICITY   = .0005151
INCLINATION    = 82.5362
RA_OF_ASC_NODE = 137.8776
ARG_OF_PERICENTER = 152.8300
MEAN_ANOMALY   = 207.3224

EPHEMERIS_TYPE = 0
CLASSIFICATION_TYPE = U
NORAD_CAT_ID   = 16719
ELEMENT_SET_NO = 999
REV_AT_EPOCH   = 17072
BSTAR          = .49878E-3
MEAN_MOTION_DOT = .32302E-3
MEAN_MOTION_DDOT = 0

