SL-3 R/B                
1 13403U 82079B   26007.48832314  .00005039  00000+0  20534-3 0  9998
2 13403  81.1463 265.3049 0025962  15.8257 344.3780 15.23955612368372
SL-14 R/B               
1 13553U 82092B   26007.52695473  .00000595  00000+0  64095-4 0  9990
2 13553  82.5668 198.5938 0021261 140.9607 275.4202 14.86586438319846
SL-3 R/B                
1 13819U 83010B   26007.43839912  .00012459  00000+0  26871-3 0  9995
2 13819  81.1034  77.2325 0016196 258.7261 101.2162 15.44290870348481
SL-3 R/B                
1 14208U 83075B   26007.51298237  .00009692  00000+0  26943-3 0  9992
2 14208  97.6116   9.8728 0024562  88.6463 271.7594 15.36771818320754
COSMOS 1536             
1 14699U 84013A   26007.50105744  .00006752  00000+0  28564-3 0  9993
2 14699  82.5459 168.6096 0015352 134.6380 225.6111 15.22918004263305
SL-14 R/B               
1 14820U 84027B   26007.27999243  .00000617  00000+0  67848-4 0  9996
2 14820  82.5431 302.6065 0018072 171.8344 188.3170 14.85907722238510
SL-8 R/B                
1 15483U 85006B   26007.50741220  .00000330  00000+0  11818-3 0  9993
2 15483  74.0459  13.7233 0019670 301.3334 175.0061 14.37741109145233
SL-12 R/B(2)            
1 15772U 85042D   26007.30379542  .00000099  00000+0  65817-4 0  9997
2 15772  71.1066 217.4143 0036805 223.8235 309.3365 14.21960295105660
SL-14 R/B               
1 15945U 85069B   26007.48541197  .00000573  00000+0  61988-4 0  9996
2 15945  82.5267  82.4992 0019712  38.9911 321.2722 14.86358527163740
SL-16 R/B               
1 16182U 85097B   26007.50461470  .00000305  00000+0  17706-3 0  9990
2 16182  71.0033 269.3629 0008242 333.7891 198.7914 14.16589850 78563
SL-14 R/B               
1 16496U 86006B   26007.34342951  .00000789  00000+0  80963-4 0  9995
2 16496  82.5286 317.4612 0078103 115.5361 245.3958 14.86711509140096
COSMOS 1743             
1 16719U 86034A   26007.42869641  .00032302  00000+0  49878-3 0  9998
2 16719  82.5362 137.8776 0005151 152.8300 207.3224 15.53946733170725
